{
    "week": 294,
    "satellites": [
        {
            "Name": "COSMOS 2485 (747)",
            "Line1": "1 39155U 13019A   24332.98636434 -.00000006  00000+0  00000+0 0  9999",
            "Line2": "2 39155  65.1189  92.6524 0023647 228.1725 131.6075  2.13104424 90218",
            "SatelliteNumber": "39155",
            "Classification": "U",
            "LaunchYear": "13",
            "LaunchNumber": "019",
            "PieceOfLaunch": "A",
            "EpochYear": "24",
            "EpochDay": 332.98636434,
            "FirstDerivativeMeanMotion": -6e-08,
            "SecondDerivativeMeanMotion": "00000+0",
            "BSTAR": "00000+0",
            "SetNumber": "999",
            "Inclination": 65.1189,
            "RAAN": 92.6524,
            "Eccentricity": 0.0023647,
            "ArgumentOfPerigee": 228.1725,
            "MeanAnomaly": 131.6075,
            "MeanMotion": 2.13104424,
            "RevolutionNumber": "9021"
        },
        {
            "Name": "COSMOS 2492 (754)",
            "Line1": "1 39620U 14012A   24333.41094299 -.00000041  00000+0  00000+0 0  9995",
            "Line2": "2 39620  65.6032 333.0984 0014450 310.6400  49.2640  2.13103287 83184",
            "SatelliteNumber": "39620",
            "Classification": "U",
            "LaunchYear": "14",
            "LaunchNumber": "012",
            "PieceOfLaunch": "A",
            "EpochYear": "24",
            "EpochDay": 333.41094299,
            "FirstDerivativeMeanMotion": -4.1e-07,
            "SecondDerivativeMeanMotion": "00000+0",
            "BSTAR": "00000+0",
            "SetNumber": "999",
            "Inclination": 65.6032,
            "RAAN": 333.0984,
            "Eccentricity": 0.001445,
            "ArgumentOfPerigee": 310.64,
            "MeanAnomaly": 49.264,
            "MeanMotion": 2.13103287,
            "RevolutionNumber": "8318"
        },
        {
            "Name": "COSMOS 2500 (755)",
            "Line1": "1 40001U 14032A   24333.11889553 -.00000041  00000+0  00000+0 0  9994",
            "Line2": "2 40001  65.5402 332.9004 0008443 221.1764 138.7898  2.13106068 81394",
            "SatelliteNumber": "40001",
            "Classification": "U",
            "LaunchYear": "14",
            "LaunchNumber": "032",
            "PieceOfLaunch": "A",
            "EpochYear": "24",
            "EpochDay": 333.11889553,
            "FirstDerivativeMeanMotion": -4.1e-07,
            "SecondDerivativeMeanMotion": "00000+0",
            "BSTAR": "00000+0",
            "SetNumber": "999",
            "Inclination": 65.5402,
            "RAAN": 332.9004,
            "Eccentricity": 0.0008443,
            "ArgumentOfPerigee": 221.1764,
            "MeanAnomaly": 138.7898,
            "MeanMotion": 2.13106068,
            "RevolutionNumber": "8139"
        },
        {
            "Name": "COSMOS 2501 (702K)",
            "Line1": "1 40315U 14075A   24333.37404512  .00000067  00000+0  00000+0 0  9992",
            "Line2": "2 40315  63.6161 209.9744 0019255 205.2458 154.7505  2.13101491 77790",
            "SatelliteNumber": "40315",
            "Classification": "U",
            "LaunchYear": "14",
            "LaunchNumber": "075",
            "PieceOfLaunch": "A",
            "EpochYear": "24",
            "EpochDay": 333.37404512,
            "FirstDerivativeMeanMotion": 6.7e-07,
            "SecondDerivativeMeanMotion": "00000+0",
            "BSTAR": "00000+0",
            "SetNumber": "999",
            "Inclination": 63.6161,
            "RAAN": 209.9744,
            "Eccentricity": 0.0019255,
            "ArgumentOfPerigee": 205.2458,
            "MeanAnomaly": 154.7505,
            "MeanMotion": 2.13101491,
            "RevolutionNumber": "7779"
        },
        {
            "Name": "COSMOS 2514 (751)",
            "Line1": "1 41330U 16008A   24333.35692388 -.00000041  00000+0  00000+0 0  9999",
            "Line2": "2 41330  65.3336 332.3603 0012516 221.9248 138.0078  2.13102682 68569",
            "SatelliteNumber": "41330",
            "Classification": "U",
            "LaunchYear": "16",
            "LaunchNumber": "008",
            "PieceOfLaunch": "A",
            "EpochYear": "24",
            "EpochDay": 333.35692388,
            "FirstDerivativeMeanMotion": -4.1e-07,
            "SecondDerivativeMeanMotion": "00000+0",
            "BSTAR": "00000+0",
            "SetNumber": "999",
            "Inclination": 65.3336,
            "RAAN": 332.3603,
            "Eccentricity": 0.0012516,
            "ArgumentOfPerigee": 221.9248,
            "MeanAnomaly": 138.0078,
            "MeanMotion": 2.13102682,
            "RevolutionNumber": "6856"
        },
        {
            "Name": "COSMOS 2522 (752)",
            "Line1": "1 42939U 17055A   24333.19670773  .00000063  00000+0  00000+0 0  9997",
            "Line2": "2 42939  64.0774 211.1655 0006430 232.0896 127.9412  2.13102041 55911",
            "SatelliteNumber": "42939",
            "Classification": "U",
            "LaunchYear": "17",
            "LaunchNumber": "055",
            "PieceOfLaunch": "A",
            "EpochYear": "24",
            "EpochDay": 333.19670773,
            "FirstDerivativeMeanMotion": 6.3e-07,
            "SecondDerivativeMeanMotion": "00000+0",
            "BSTAR": "00000+0",
            "SetNumber": "999",
            "Inclination": 64.0774,
            "RAAN": 211.1655,
            "Eccentricity": 0.000643,
            "ArgumentOfPerigee": 232.0896,
            "MeanAnomaly": 127.9412,
            "MeanMotion": 2.13102041,
            "RevolutionNumber": "5591"
        },
        {
            "Name": "COSMOS 2527 (756)",
            "Line1": "1 43508U 18053A   24333.15609599 -.00000006  00000+0  00000+0 0  9991",
            "Line2": "2 43508  65.2786  92.8330 0008463 220.2219 139.6970  2.13102311 50217",
            "SatelliteNumber": "43508",
            "Classification": "U",
            "LaunchYear": "18",
            "LaunchNumber": "053",
            "PieceOfLaunch": "A",
            "EpochYear": "24",
            "EpochDay": 333.15609599,
            "FirstDerivativeMeanMotion": -6e-08,
            "SecondDerivativeMeanMotion": "00000+0",
            "BSTAR": "00000+0",
            "SetNumber": "999",
            "Inclination": 65.2786,
            "RAAN": 92.833,
            "Eccentricity": 0.0008463,
            "ArgumentOfPerigee": 220.2219,
            "MeanAnomaly": 139.697,
            "MeanMotion": 2.13102311,
            "RevolutionNumber": "5021"
        },
        {
            "Name": "COSMOS 2529 (757)",
            "Line1": "1 43687U 18086A   24333.25482423  .00000063  00000+0  00000+0 0  9993",
            "Line2": "2 43687  64.2930 211.7204 0007638 260.7196  99.2828  2.13102086 47222",
            "SatelliteNumber": "43687",
            "Classification": "U",
            "LaunchYear": "18",
            "LaunchNumber": "086",
            "PieceOfLaunch": "A",
            "EpochYear": "24",
            "EpochDay": 333.25482423,
            "FirstDerivativeMeanMotion": 6.3e-07,
            "SecondDerivativeMeanMotion": "00000+0",
            "BSTAR": "00000+0",
            "SetNumber": "999",
            "Inclination": 64.293,
            "RAAN": 211.7204,
            "Eccentricity": 0.0007638,
            "ArgumentOfPerigee": 260.7196,
            "MeanAnomaly": 99.2828,
            "MeanMotion": 2.13102086,
            "RevolutionNumber": "4722"
        },
        {
            "Name": "COSMOS 2534 (758)",
            "Line1": "1 44299U 19030A   24333.29058535  .00000063  00000+0  00000+0 0  9990",
            "Line2": "2 44299  64.3659 211.6881 0009849 287.1191 234.5519  2.13102208 42867",
            "SatelliteNumber": "44299",
            "Classification": "U",
            "LaunchYear": "19",
            "LaunchNumber": "030",
            "PieceOfLaunch": "A",
            "EpochYear": "24",
            "EpochDay": 333.29058535,
            "FirstDerivativeMeanMotion": 6.3e-07,
            "SecondDerivativeMeanMotion": "00000+0",
            "BSTAR": "00000+0",
            "SetNumber": "999",
            "Inclination": 64.3659,
            "RAAN": 211.6881,
            "Eccentricity": 0.0009849,
            "ArgumentOfPerigee": 287.1191,
            "MeanAnomaly": 234.5519,
            "MeanMotion": 2.13102208,
            "RevolutionNumber": "4286"
        },
        {
            "Name": "COSMOS 2544 (759)",
            "Line1": "1 44850U 19088A   24333.10028782 -.00000006  00000+0  00000+0 0  9995",
            "Line2": "2 44850  65.2655  92.6688 0012887 248.2953 111.5492  2.13102077 38658",
            "SatelliteNumber": "44850",
            "Classification": "U",
            "LaunchYear": "19",
            "LaunchNumber": "088",
            "PieceOfLaunch": "A",
            "EpochYear": "24",
            "EpochDay": 333.10028782,
            "FirstDerivativeMeanMotion": -6e-08,
            "SecondDerivativeMeanMotion": "00000+0",
            "BSTAR": "00000+0",
            "SetNumber": "999",
            "Inclination": 65.2655,
            "RAAN": 92.6688,
            "Eccentricity": 0.0012887,
            "ArgumentOfPerigee": 248.2953,
            "MeanAnomaly": 111.5492,
            "MeanMotion": 2.13102077,
            "RevolutionNumber": "3865"
        }
    ]
}